{
    "status": true,
    "credits": 1993,
    "stats": {
        "results": 105,
        "from": 0,
        "to": 104
    },
    "metar-history": [
        {
            "id": 486037430,
            "observed": "2024-03-27 09:50:00",
            "raw": "ESMX 270950Z 12006KT 070V150 CAVOK 11/04 Q0993",
            "code": "VFR",
            "weather": "sunny",
            "ceiling": null,
            "wind_dir": 120,
            "wind_speed": 6,
            "wind_gust": null,
            "temperature": 11,
            "dewpoint": 4,
            "qnh": 993
        },
        {
            "id": 486034315,
            "observed": "2024-03-27 09:20:00",
            "raw": "ESMX 270920Z 12006KT 060V160 CAVOK 10/03 Q0993",
            "code": "VFR",
            "weather": "sunny",
            "ceiling": null,
            "wind_dir": 120,
            "wind_speed": 6,
            "wind_gust": null,
            "temperature": 10,
            "dewpoint": 3,
            "qnh": 993
        },
        {
            "id": 486028275,
            "observed": "2024-03-27 08:50:00",
            "raw": "ESMX 270850Z 13006KT 080V200 CAVOK 09/03 Q0994",
            "code": "VFR",
            "weather": "sunny",
            "ceiling": null,
            "wind_dir": 130,
            "wind_speed": 6,
            "wind_gust": null,
            "temperature": 9,
            "dewpoint": 3,
            "qnh": 994
        },
        {
            "id": 486024877,
            "observed": "2024-03-27 08:20:00",
            "raw": "ESMX 270820Z 12007KT 070V160 CAVOK 08/03 Q0994",
            "code": "VFR",
            "weather": "sunny",
            "ceiling": null,
            "wind_dir": 120,
            "wind_speed": 7,
            "wind_gust": null,
            "temperature": 8,
            "dewpoint": 3,
            "qnh": 994
        },
        {
            "id": 486018989,
            "observed": "2024-03-27 07:50:00",
            "raw": "ESMX 270750Z 11006KT 070V150 CAVOK 08/03 Q0994",
            "code": "VFR",
            "weather": "sunny",
            "ceiling": null,
            "wind_dir": 110,
            "wind_speed": 6,
            "wind_gust": null,
            "temperature": 8,
            "dewpoint": 3,
            "qnh": 994
        },
        {
            "id": 486016084,
            "observed": "2024-03-27 07:20:00",
            "raw": "ESMX 270720Z 12006KT 080V150 CAVOK 07/03 Q0994",
            "code": "VFR",
            "weather": "sunny",
            "ceiling": null,
            "wind_dir": 120,
            "wind_speed": 6,
            "wind_gust": null,
            "temperature": 7,
            "dewpoint": 3,
            "qnh": 994
        },
        {
            "id": 486009766,
            "observed": "2024-03-27 06:50:00",
            "raw": "ESMX 270650Z 09004KT 030V140 CAVOK 06/04 Q0994",
            "code": "VFR",
            "weather": "sunny",
            "ceiling": null,
            "wind_dir": 90,
            "wind_speed": 4,
            "wind_gust": null,
            "temperature": 6,
            "dewpoint": 4,
            "qnh": 994
        },
        {
            "id": 486006359,
            "observed": "2024-03-27 06:20:00",
            "raw": "ESMX 270620Z 09004KT 020V130 CAVOK 04/03 Q0994",
            "code": "VFR",
            "weather": "sunny",
            "ceiling": null,
            "wind_dir": 90,
            "wind_speed": 4,
            "wind_gust": null,
            "temperature": 4,
            "dewpoint": 3,
            "qnh": 994
        },
        {
            "id": 486000520,
            "observed": "2024-03-27 05:50:00",
            "raw": "ESMX 270550Z 09004KT 050V120 CAVOK 04/03 Q0995",
            "code": "VFR",
            "weather": "sunny",
            "ceiling": null,
            "wind_dir": 90,
            "wind_speed": 4,
            "wind_gust": null,
            "temperature": 4,
            "dewpoint": 3,
            "qnh": 995
        },
        {
            "id": 485997207,
            "observed": "2024-03-27 05:20:00",
            "raw": "ESMX 270520Z 08003KT 020V140 CAVOK 04/03 Q0995",
            "code": "VFR",
            "weather": "sunny",
            "ceiling": null,
            "wind_dir": 80,
            "wind_speed": 3,
            "wind_gust": null,
            "temperature": 4,
            "dewpoint": 3,
            "qnh": 995
        },
        {
            "id": 485991241,
            "observed": "2024-03-27 04:50:00",
            "raw": "ESMX 270450Z 08004KT 050V120 CAVOK 04/03 Q0995",
            "code": "VFR",
            "weather": "sunny",
            "ceiling": null,
            "wind_dir": 80,
            "wind_speed": 4,
            "wind_gust": null,
            "temperature": 4,
            "dewpoint": 3,
            "qnh": 995
        },
        {
            "id": 485983984,
            "observed": "2024-03-27 04:20:00",
            "raw": "ESMX 270420Z 08003KT 030V110 CAVOK 04/03 Q0995",
            "code": "VFR",
            "weather": "sunny",
            "ceiling": null,
            "wind_dir": 80,
            "wind_speed": 3,
            "wind_gust": null,
            "temperature": 4,
            "dewpoint": 3,
            "qnh": 995
        },
        {
            "id": 485974061,
            "observed": "2024-03-27 03:50:00",
            "raw": "ESMX 270350Z AUTO 08003KT 030V120 9999 OVC098/// 04/03 Q0995",
            "code": "VFR",
            "weather": "overcast",
            "ceiling": 9800,
            "wind_dir": 80,
            "wind_speed": 3,
            "wind_gust": null,
            "temperature": 4,
            "dewpoint": 3,
            "qnh": 995
        },
        {
            "id": 485970796,
            "observed": "2024-03-27 03:20:00",
            "raw": "ESMX 270320Z AUTO 09004KT 050V130 9999 OVC098/// 04/03 Q0995",
            "code": "VFR",
            "weather": "overcast",
            "ceiling": 9800,
            "wind_dir": 90,
            "wind_speed": 4,
            "wind_gust": null,
            "temperature": 4,
            "dewpoint": 3,
            "qnh": 995
        },
        {
            "id": 485964955,
            "observed": "2024-03-27 02:50:00",
            "raw": "ESMX 270250Z AUTO 10004KT 030V150 9999 OVC100/// 03/03 Q0996",
            "code": "VFR",
            "weather": "overcast",
            "ceiling": 10000,
            "wind_dir": 100,
            "wind_speed": 4,
            "wind_gust": null,
            "temperature": 3,
            "dewpoint": 3,
            "qnh": 996
        },
        {
            "id": 485961642,
            "observed": "2024-03-27 02:20:00",
            "raw": "ESMX 270220Z AUTO 09003KT 050V140 9999 OVC098/// 03/03 Q0996",
            "code": "VFR",
            "weather": "overcast",
            "ceiling": 9800,
            "wind_dir": 90,
            "wind_speed": 3,
            "wind_gust": null,
            "temperature": 3,
            "dewpoint": 3,
            "qnh": 996
        },
        {
            "id": 485955880,
            "observed": "2024-03-27 01:50:00",
            "raw": "ESMX 270150Z AUTO 08004KT 040V110 9999 BKN096/// OVC120/// 03/03 Q0996",
            "code": "VFR",
            "weather": "overcast",
            "ceiling": 9600,
            "wind_dir": 80,
            "wind_speed": 4,
            "wind_gust": null,
            "temperature": 3,
            "dewpoint": 3,
            "qnh": 996
        },
        {
            "id": 485952534,
            "observed": "2024-03-27 01:20:00",
            "raw": "ESMX 270120Z AUTO 07004KT 040V100 9999 SCT130/// 03/02 Q0997",
            "code": "VFR",
            "weather": "scattered",
            "ceiling": null,
            "wind_dir": 70,
            "wind_speed": 4,
            "wind_gust": null,
            "temperature": 3,
            "dewpoint": 2,
            "qnh": 997
        },
        {
            "id": 485946749,
            "observed": "2024-03-27 00:50:00",
            "raw": "ESMX 270050Z 07004KT 040V120 CAVOK 03/02 Q0997",
            "code": "VFR",
            "weather": "sunny",
            "ceiling": null,
            "wind_dir": 70,
            "wind_speed": 4,
            "wind_gust": null,
            "temperature": 3,
            "dewpoint": 2,
            "qnh": 997
        },
        {
            "id": 485943421,
            "observed": "2024-03-27 00:20:00",
            "raw": "ESMX 270020Z 09003KT 050V120 9999 FEW130 03/02 Q0997",
            "code": "VFR",
            "weather": "few",
            "ceiling": null,
            "wind_dir": 90,
            "wind_speed": 3,
            "wind_gust": null,
            "temperature": 3,
            "dewpoint": 2,
            "qnh": 997
        },
        {
            "id": 485937709,
            "observed": "2024-03-26 23:50:00",
            "raw": "ESMX 262350Z 09003KT 050V130 CAVOK 03/03 Q0998",
            "code": "VFR",
            "weather": "sunny",
            "ceiling": null,
            "wind_dir": 90,
            "wind_speed": 3,
            "wind_gust": null,
            "temperature": 3,
            "dewpoint": 3,
            "qnh": 998
        },
        {
            "id": 485934346,
            "observed": "2024-03-26 23:20:00",
            "raw": "ESMX 262320Z VRB03KT CAVOK 03/03 Q0998",
            "code": "VFR",
            "weather": "sunny",
            "ceiling": null,
            "wind_dir": -1,
            "wind_speed": 3,
            "wind_gust": null,
            "temperature": 3,
            "dewpoint": 3,
            "qnh": 998
        },
        {
            "id": 485928417,
            "observed": "2024-03-26 22:50:00",
            "raw": "ESMX 262250Z 11004KT 060V150 CAVOK 03/03 Q0998",
            "code": "VFR",
            "weather": "sunny",
            "ceiling": null,
            "wind_dir": 110,
            "wind_speed": 4,
            "wind_gust": null,
            "temperature": 3,
            "dewpoint": 3,
            "qnh": 998
        },
        {
            "id": 485925056,
            "observed": "2024-03-26 22:20:00",
            "raw": "ESMX 262220Z 12004KT 070V160 CAVOK 03/03 Q0998",
            "code": "VFR",
            "weather": "sunny",
            "ceiling": null,
            "wind_dir": 120,
            "wind_speed": 4,
            "wind_gust": null,
            "temperature": 3,
            "dewpoint": 3,
            "qnh": 998
        },
        {
            "id": 485919306,
            "observed": "2024-03-26 21:50:00",
            "raw": "ESMX 262150Z 10004KT 060V140 CAVOK 03/03 Q0999",
            "code": "VFR",
            "weather": "sunny",
            "ceiling": null,
            "wind_dir": 100,
            "wind_speed": 4,
            "wind_gust": null,
            "temperature": 3,
            "dewpoint": 3,
            "qnh": 999
        },
        {
            "id": 485916064,
            "observed": "2024-03-26 21:20:00",
            "raw": "ESMX 262120Z 12005KT 050V150 CAVOK 03/02 Q0999",
            "code": "VFR",
            "weather": "sunny",
            "ceiling": null,
            "wind_dir": 120,
            "wind_speed": 5,
            "wind_gust": null,
            "temperature": 3,
            "dewpoint": 2,
            "qnh": 999
        },
        {
            "id": 485910216,
            "observed": "2024-03-26 20:50:00",
            "raw": "ESMX 262050Z 11005KT 050V180 CAVOK 03/02 Q0999",
            "code": "VFR",
            "weather": "sunny",
            "ceiling": null,
            "wind_dir": 110,
            "wind_speed": 5,
            "wind_gust": null,
            "temperature": 3,
            "dewpoint": 2,
            "qnh": 999
        },
        {
            "id": 485906894,
            "observed": "2024-03-26 20:20:00",
            "raw": "ESMX 262020Z AUTO 12004KT 050V150 9999 OVC120/// 03/02 Q0999",
            "code": "VFR",
            "weather": "overcast",
            "ceiling": 12000,
            "wind_dir": 120,
            "wind_speed": 4,
            "wind_gust": null,
            "temperature": 3,
            "dewpoint": 2,
            "qnh": 999
        },
        {
            "id": 485901009,
            "observed": "2024-03-26 19:50:00",
            "raw": "ESMX 261950Z 11004KT 070V150 9999 FEW043 OVC120 04/02 Q1000",
            "code": "VFR",
            "weather": "overcast",
            "ceiling": 12000,
            "wind_dir": 110,
            "wind_speed": 4,
            "wind_gust": null,
            "temperature": 4,
            "dewpoint": 2,
            "qnh": 1000
        },
        {
            "id": 485897887,
            "observed": "2024-03-26 19:20:00",
            "raw": "ESMX 261920Z AUTO 12004KT 050V160 9999 BKN120/// 04/02 Q1000",
            "code": "VFR",
            "weather": "broken",
            "ceiling": 12000,
            "wind_dir": 120,
            "wind_speed": 4,
            "wind_gust": null,
            "temperature": 4,
            "dewpoint": 2,
            "qnh": 1000
        },
        {
            "id": 485891802,
            "observed": "2024-03-26 18:50:00",
            "raw": "ESMX 261850Z AUTO 11005KT 060V160 9999 BKN120/// 04/02 Q1000",
            "code": "VFR",
            "weather": "broken",
            "ceiling": 12000,
            "wind_dir": 110,
            "wind_speed": 5,
            "wind_gust": null,
            "temperature": 4,
            "dewpoint": 2,
            "qnh": 1000
        },
        {
            "id": 485888263,
            "observed": "2024-03-26 18:20:00",
            "raw": "ESMX 261820Z 11005KT 050V150 CAVOK 04/01 Q1000",
            "code": "VFR",
            "weather": "sunny",
            "ceiling": null,
            "wind_dir": 110,
            "wind_speed": 5,
            "wind_gust": null,
            "temperature": 4,
            "dewpoint": 1,
            "qnh": 1000
        },
        {
            "id": 485882353,
            "observed": "2024-03-26 17:50:00",
            "raw": "ESMX 261750Z 13006KT 080V160 CAVOK 05/01 Q1000",
            "code": "VFR",
            "weather": "sunny",
            "ceiling": null,
            "wind_dir": 130,
            "wind_speed": 6,
            "wind_gust": null,
            "temperature": 5,
            "dewpoint": 1,
            "qnh": 1000
        },
        {
            "id": 485878931,
            "observed": "2024-03-26 17:20:00",
            "raw": "ESMX 261720Z 14005KT 100V160 CAVOK 06/01 Q1000",
            "code": "VFR",
            "weather": "sunny",
            "ceiling": null,
            "wind_dir": 140,
            "wind_speed": 5,
            "wind_gust": null,
            "temperature": 6,
            "dewpoint": 1,
            "qnh": 1000
        },
        {
            "id": 485872871,
            "observed": "2024-03-26 16:50:00",
            "raw": "ESMX 261650Z 15006KT 110V170 9999 FEW031 06/01 Q1001",
            "code": "VFR",
            "weather": "few",
            "ceiling": null,
            "wind_dir": 150,
            "wind_speed": 6,
            "wind_gust": null,
            "temperature": 6,
            "dewpoint": 1,
            "qnh": 1001
        },
        {
            "id": 485869308,
            "observed": "2024-03-26 16:20:00",
            "raw": "ESMX 261620Z 15008KT 100V190 9999 FEW028 SCT037 07/01 Q1001",
            "code": "VFR",
            "weather": "scattered",
            "ceiling": null,
            "wind_dir": 150,
            "wind_speed": 8,
            "wind_gust": null,
            "temperature": 7,
            "dewpoint": 1,
            "qnh": 1001
        },
        {
            "id": 485863361,
            "observed": "2024-03-26 15:50:00",
            "raw": "ESMX 261550Z 14009KT 110V170 CAVOK 07/01 Q1001",
            "code": "VFR",
            "weather": "sunny",
            "ceiling": null,
            "wind_dir": 140,
            "wind_speed": 9,
            "wind_gust": null,
            "temperature": 7,
            "dewpoint": 1,
            "qnh": 1001
        },
        {
            "id": 485859848,
            "observed": "2024-03-26 15:20:00",
            "raw": "ESMX 261520Z 16007KT 110V190 9999 FEW028 BKN055 07/02 Q1001",
            "code": "VFR",
            "weather": "broken",
            "ceiling": 5500,
            "wind_dir": 160,
            "wind_speed": 7,
            "wind_gust": null,
            "temperature": 7,
            "dewpoint": 2,
            "qnh": 1001
        },
        {
            "id": 485853902,
            "observed": "2024-03-26 14:50:00",
            "raw": "ESMX 261450Z 17008KT 9999 FEW026 BKN041 07/02 Q1001",
            "code": "VFR",
            "weather": "broken",
            "ceiling": 4100,
            "wind_dir": 170,
            "wind_speed": 8,
            "wind_gust": null,
            "temperature": 7,
            "dewpoint": 2,
            "qnh": 1001
        },
        {
            "id": 485846606,
            "observed": "2024-03-26 14:20:00",
            "raw": "ESMX 261420Z 16006KT 9999 SCT021 BKN059 07/03 Q1002",
            "code": "VFR",
            "weather": "broken",
            "ceiling": 5900,
            "wind_dir": 160,
            "wind_speed": 6,
            "wind_gust": null,
            "temperature": 7,
            "dewpoint": 3,
            "qnh": 1002
        },
        {
            "id": 485835202,
            "observed": "2024-03-26 13:50:00",
            "raw": "ESMX 261350Z 16009KT 120V200 9999 SCT024 BKN062 07/03 Q1002",
            "code": "VFR",
            "weather": "broken",
            "ceiling": 6200,
            "wind_dir": 160,
            "wind_speed": 9,
            "wind_gust": null,
            "temperature": 7,
            "dewpoint": 3,
            "qnh": 1002
        },
        {
            "id": 485831816,
            "observed": "2024-03-26 13:20:00",
            "raw": "ESMX 261320Z 16009KT 9999 SCT024 BKN045 08/03 Q1002",
            "code": "VFR",
            "weather": "broken",
            "ceiling": 4500,
            "wind_dir": 160,
            "wind_speed": 9,
            "wind_gust": null,
            "temperature": 8,
            "dewpoint": 3,
            "qnh": 1002
        },
        {
            "id": 485825480,
            "observed": "2024-03-26 12:50:00",
            "raw": "ESMX 261250Z 16007KT 9999 SCT022 BKN061 07/04 Q1002",
            "code": "VFR",
            "weather": "broken",
            "ceiling": 6100,
            "wind_dir": 160,
            "wind_speed": 7,
            "wind_gust": null,
            "temperature": 7,
            "dewpoint": 4,
            "qnh": 1002
        },
        {
            "id": 485822410,
            "observed": "2024-03-26 12:20:00",
            "raw": "ESMX 261220Z 16005KT CAVOK 06/04 Q1003",
            "code": "VFR",
            "weather": "sunny",
            "ceiling": null,
            "wind_dir": 160,
            "wind_speed": 5,
            "wind_gust": null,
            "temperature": 6,
            "dewpoint": 4,
            "qnh": 1003
        },
        {
            "id": 485815777,
            "observed": "2024-03-26 11:50:00",
            "raw": "ESMX 261150Z 14004KT 9999 BKN055 05/04 Q1003",
            "code": "VFR",
            "weather": "broken",
            "ceiling": 5500,
            "wind_dir": 140,
            "wind_speed": 4,
            "wind_gust": null,
            "temperature": 5,
            "dewpoint": 4,
            "qnh": 1003
        },
        {
            "id": 485812170,
            "observed": "2024-03-26 11:20:00",
            "raw": "ESMX 261120Z 13002KT 9999 FEW015 SCT032 BKN051 05/04 Q1003",
            "code": "VFR",
            "weather": "broken",
            "ceiling": 5100,
            "wind_dir": 130,
            "wind_speed": 2,
            "wind_gust": null,
            "temperature": 5,
            "dewpoint": 4,
            "qnh": 1003
        },
        {
            "id": 485806194,
            "observed": "2024-03-26 10:50:00",
            "raw": "ESMX 261050Z 16006KT 9999 -DZ FEW011 BKN033 04/03 Q1003",
            "code": "VFR",
            "weather": "drizzle",
            "ceiling": 3300,
            "wind_dir": 160,
            "wind_speed": 6,
            "wind_gust": null,
            "temperature": 4,
            "dewpoint": 3,
            "qnh": 1003
        },
        {
            "id": 485802655,
            "observed": "2024-03-26 10:20:00",
            "raw": "ESMX 261020Z 17006KT 9999 FEW006 SCT035 BKN048 05/03 Q1004 REDZ",
            "code": "VFR",
            "weather": "broken",
            "ceiling": 4800,
            "wind_dir": 170,
            "wind_speed": 6,
            "wind_gust": null,
            "temperature": 5,
            "dewpoint": 3,
            "qnh": 1004
        },
        {
            "id": 485796875,
            "observed": "2024-03-26 09:50:00",
            "raw": "ESMX 260950Z 17006KT 130V190 9999 DZ FEW015 BKN033 05/03 Q1004",
            "code": "VFR",
            "weather": "drizzle",
            "ceiling": 3300,
            "wind_dir": 170,
            "wind_speed": 6,
            "wind_gust": null,
            "temperature": 5,
            "dewpoint": 3,
            "qnh": 1004
        },
        {
            "id": 485793372,
            "observed": "2024-03-26 09:20:00",
            "raw": "ESMX 260920Z 16005KT 9999 BKN037 BKN049 05/03 Q1003",
            "code": "VFR",
            "weather": "broken",
            "ceiling": 3700,
            "wind_dir": 160,
            "wind_speed": 5,
            "wind_gust": null,
            "temperature": 5,
            "dewpoint": 3,
            "qnh": 1003
        },
        {
            "id": 485787465,
            "observed": "2024-03-26 08:50:00",
            "raw": "ESMX 260850Z 18006KT 9999 FEW012 BKN044 05/04 Q1003",
            "code": "VFR",
            "weather": "broken",
            "ceiling": 4400,
            "wind_dir": 180,
            "wind_speed": 6,
            "wind_gust": null,
            "temperature": 5,
            "dewpoint": 4,
            "qnh": 1003
        },
        {
            "id": 485783854,
            "observed": "2024-03-26 08:20:00",
            "raw": "ESMX 260820Z 18005KT 9999 FEW043 05/04 Q1003",
            "code": "VFR",
            "weather": "few",
            "ceiling": null,
            "wind_dir": 180,
            "wind_speed": 5,
            "wind_gust": null,
            "temperature": 5,
            "dewpoint": 4,
            "qnh": 1003
        },
        {
            "id": 485777950,
            "observed": "2024-03-26 07:50:00",
            "raw": "ESMX 260750Z 17006KT 9999 SCT005 BKN057 04/03 Q1004",
            "code": "VFR",
            "weather": "broken",
            "ceiling": 5700,
            "wind_dir": 170,
            "wind_speed": 6,
            "wind_gust": null,
            "temperature": 4,
            "dewpoint": 3,
            "qnh": 1004
        },
        {
            "id": 485774900,
            "observed": "2024-03-26 07:20:00",
            "raw": "ESMX 260720Z 16006KT 9999 SCT004 03/03 Q1004",
            "code": "VFR",
            "weather": "scattered",
            "ceiling": null,
            "wind_dir": 160,
            "wind_speed": 6,
            "wind_gust": null,
            "temperature": 3,
            "dewpoint": 3,
            "qnh": 1004
        },
        {
            "id": 485768568,
            "observed": "2024-03-26 06:50:00",
            "raw": "ESMX 260650Z 15004KT 9999 BKN034 02/02 Q1003",
            "code": "VFR",
            "weather": "broken",
            "ceiling": 3400,
            "wind_dir": 150,
            "wind_speed": 4,
            "wind_gust": null,
            "temperature": 2,
            "dewpoint": 2,
            "qnh": 1003
        },
        {
            "id": 485765078,
            "observed": "2024-03-26 06:20:00",
            "raw": "ESMX 260620Z 14004KT 9999 FEW004 BKN033 02/02 Q1003",
            "code": "VFR",
            "weather": "broken",
            "ceiling": 3300,
            "wind_dir": 140,
            "wind_speed": 4,
            "wind_gust": null,
            "temperature": 2,
            "dewpoint": 2,
            "qnh": 1003
        },
        {
            "id": 485759368,
            "observed": "2024-03-26 05:50:00",
            "raw": "ESMX 260550Z 14004KT 9999 FEW025 BKN035 BKN049 02/02 Q1003",
            "code": "VFR",
            "weather": "broken",
            "ceiling": 3500,
            "wind_dir": 140,
            "wind_speed": 4,
            "wind_gust": null,
            "temperature": 2,
            "dewpoint": 2,
            "qnh": 1003
        },
        {
            "id": 485755948,
            "observed": "2024-03-26 05:20:00",
            "raw": "ESMX 260520Z 14004KT 9999 BKN037 01/01 Q1003",
            "code": "VFR",
            "weather": "broken",
            "ceiling": 3700,
            "wind_dir": 140,
            "wind_speed": 4,
            "wind_gust": null,
            "temperature": 1,
            "dewpoint": 1,
            "qnh": 1003
        },
        {
            "id": 485750143,
            "observed": "2024-03-26 04:50:00",
            "raw": "ESMX 260450Z AUTO 13004KT 9999 FEW002/// SCT027/// BKN042/// 01/01 Q1003",
            "code": "VFR",
            "weather": "broken",
            "ceiling": 4200,
            "wind_dir": 130,
            "wind_speed": 4,
            "wind_gust": null,
            "temperature": 1,
            "dewpoint": 1,
            "qnh": 1003
        },
        {
            "id": 485746602,
            "observed": "2024-03-26 04:20:00",
            "raw": "ESMX 260420Z AUTO 16004KT 2300 FEW044/// OVC064/// 00/00 Q1003",
            "code": "IFR",
            "weather": "overcast",
            "ceiling": 6400,
            "wind_dir": 160,
            "wind_speed": 4,
            "wind_gust": null,
            "temperature": 0,
            "dewpoint": 0,
            "qnh": 1003
        },
        {
            "id": 485740858,
            "observed": "2024-03-26 03:50:00",
            "raw": "ESMX 260350Z AUTO 19003KT 7000 SCT043/// M00/M00 Q1003",
            "code": "MVFR",
            "weather": "scattered",
            "ceiling": null,
            "wind_dir": 190,
            "wind_speed": 3,
            "wind_gust": null,
            "temperature": 0,
            "dewpoint": 0,
            "qnh": 1003
        },
        {
            "id": 485737618,
            "observed": "2024-03-26 03:20:00",
            "raw": "ESMX 260320Z AUTO 20002KT 9999 FEW002/// BKN042/// 01/01 Q1003",
            "code": "VFR",
            "weather": "broken",
            "ceiling": 4200,
            "wind_dir": 200,
            "wind_speed": 2,
            "wind_gust": null,
            "temperature": 1,
            "dewpoint": 1,
            "qnh": 1003
        },
        {
            "id": 485731720,
            "observed": "2024-03-26 02:50:00",
            "raw": "ESMX 260250Z AUTO 00000KT 9999 SCT002/// OVC042/// 01/01 Q1003",
            "code": "VFR",
            "weather": "overcast",
            "ceiling": 4200,
            "wind_dir": 0,
            "wind_speed": 0,
            "wind_gust": null,
            "temperature": 1,
            "dewpoint": 1,
            "qnh": 1003
        },
        {
            "id": 485728380,
            "observed": "2024-03-26 02:20:00",
            "raw": "ESMX 260220Z AUTO 00000KT 3600 SCT024/// OVC042/// 01/01 Q1003",
            "code": "IFR",
            "weather": "overcast",
            "ceiling": 4200,
            "wind_dir": 0,
            "wind_speed": 0,
            "wind_gust": null,
            "temperature": 1,
            "dewpoint": 1,
            "qnh": 1003
        },
        {
            "id": 485722546,
            "observed": "2024-03-26 01:50:00",
            "raw": "ESMX 260150Z AUTO 00000KT 9999 SCT013/// OVC021/// 01/01 Q1003",
            "code": "MVFR",
            "weather": "overcast",
            "ceiling": 2100,
            "wind_dir": 0,
            "wind_speed": 0,
            "wind_gust": null,
            "temperature": 1,
            "dewpoint": 1,
            "qnh": 1003
        },
        {
            "id": 485719189,
            "observed": "2024-03-26 01:20:00",
            "raw": "ESMX 260120Z AUTO 00000KT 9999 BKN020/// OVC026/// 01/01 Q1003",
            "code": "MVFR",
            "weather": "overcast",
            "ceiling": 2000,
            "wind_dir": 0,
            "wind_speed": 0,
            "wind_gust": null,
            "temperature": 1,
            "dewpoint": 1,
            "qnh": 1003
        },
        {
            "id": 485713399,
            "observed": "2024-03-26 00:50:00",
            "raw": "ESMX 260050Z 00000KT 7000 BR BKN023 01/01 Q1003",
            "code": "MVFR",
            "weather": "mist",
            "ceiling": 2300,
            "wind_dir": 0,
            "wind_speed": 0,
            "wind_gust": null,
            "temperature": 1,
            "dewpoint": 1,
            "qnh": 1003
        },
        {
            "id": 485710072,
            "observed": "2024-03-26 00:20:00",
            "raw": "ESMX 260020Z 20002KT 9999 FEW009 BKN025 01/01 Q1003",
            "code": "MVFR",
            "weather": "broken",
            "ceiling": 2500,
            "wind_dir": 200,
            "wind_speed": 2,
            "wind_gust": null,
            "temperature": 1,
            "dewpoint": 1,
            "qnh": 1003
        },
        {
            "id": 485704251,
            "observed": "2024-03-25 23:50:00",
            "raw": "ESMX 252350Z 00000KT 7000 FEW003 SCT012 OVC032 01/01 Q1003",
            "code": "MVFR",
            "weather": "overcast",
            "ceiling": 3200,
            "wind_dir": 0,
            "wind_speed": 0,
            "wind_gust": null,
            "temperature": 1,
            "dewpoint": 1,
            "qnh": 1003
        },
        {
            "id": 485701019,
            "observed": "2024-03-25 23:20:00",
            "raw": "ESMX 252320Z 00000KT 7000 BKN019 OVC031 01/01 Q1003",
            "code": "MVFR",
            "weather": "overcast",
            "ceiling": 1900,
            "wind_dir": 0,
            "wind_speed": 0,
            "wind_gust": null,
            "temperature": 1,
            "dewpoint": 1,
            "qnh": 1003
        },
        {
            "id": 485695083,
            "observed": "2024-03-25 22:50:00",
            "raw": "ESMX 252250Z 00000KT 9999 SCT020 BKN035 00/00 Q1003",
            "code": "VFR",
            "weather": "broken",
            "ceiling": 3500,
            "wind_dir": 0,
            "wind_speed": 0,
            "wind_gust": null,
            "temperature": 0,
            "dewpoint": 0,
            "qnh": 1003
        },
        {
            "id": 485691725,
            "observed": "2024-03-25 22:20:00",
            "raw": "ESMX 252220Z 20002KT 9999 SCT021 BKN037 01/01 Q1003",
            "code": "VFR",
            "weather": "broken",
            "ceiling": 3700,
            "wind_dir": 200,
            "wind_speed": 2,
            "wind_gust": null,
            "temperature": 1,
            "dewpoint": 1,
            "qnh": 1003
        },
        {
            "id": 485685956,
            "observed": "2024-03-25 21:50:00",
            "raw": "ESMX 252150Z 20003KT 9999 FEW013 01/01 Q1003",
            "code": "VFR",
            "weather": "few",
            "ceiling": null,
            "wind_dir": 200,
            "wind_speed": 3,
            "wind_gust": null,
            "temperature": 1,
            "dewpoint": 1,
            "qnh": 1003
        },
        {
            "id": 485682476,
            "observed": "2024-03-25 21:20:00",
            "raw": "ESMX 252120Z 20003KT 9999 FEW015 M00/M00 Q1003",
            "code": "VFR",
            "weather": "few",
            "ceiling": null,
            "wind_dir": 200,
            "wind_speed": 3,
            "wind_gust": null,
            "temperature": 0,
            "dewpoint": 0,
            "qnh": 1003
        },
        {
            "id": 485676646,
            "observed": "2024-03-25 20:50:00",
            "raw": "ESMX 252050Z 00000KT 9999 SCT013 BKN044 01/01 Q1003",
            "code": "VFR",
            "weather": "broken",
            "ceiling": 4400,
            "wind_dir": 0,
            "wind_speed": 0,
            "wind_gust": null,
            "temperature": 1,
            "dewpoint": 1,
            "qnh": 1003
        },
        {
            "id": 485673396,
            "observed": "2024-03-25 20:20:00",
            "raw": "ESMX 252020Z AUTO 00000KT 9000 FEW016/// BKN042/// 02/02 Q1002",
            "code": "VFR",
            "weather": "broken",
            "ceiling": 4200,
            "wind_dir": 0,
            "wind_speed": 0,
            "wind_gust": null,
            "temperature": 2,
            "dewpoint": 2,
            "qnh": 1002
        },
        {
            "id": 485667453,
            "observed": "2024-03-25 19:50:00",
            "raw": "ESMX 251950Z AUTO 00000KT 9999 SCT020/// OVC033/// 03/03 Q1002 RESHUP REUP",
            "code": "VFR",
            "weather": "overcast",
            "ceiling": 3300,
            "wind_dir": 0,
            "wind_speed": 0,
            "wind_gust": null,
            "temperature": 3,
            "dewpoint": 3,
            "qnh": 1002
        },
        {
            "id": 485664154,
            "observed": "2024-03-25 19:20:00",
            "raw": "ESMX 251920Z AUTO 20002KT 9999 SCT021/// OVC036/// 03/03 Q1002",
            "code": "VFR",
            "weather": "overcast",
            "ceiling": 3600,
            "wind_dir": 200,
            "wind_speed": 2,
            "wind_gust": null,
            "temperature": 3,
            "dewpoint": 3,
            "qnh": 1002
        },
        {
            "id": 485658244,
            "observed": "2024-03-25 18:50:00",
            "raw": "ESMX 251850Z 20003KT 9999 BKN006 BKN014 03/03 Q1002 RERA",
            "code": "IFR",
            "weather": "broken",
            "ceiling": 600,
            "wind_dir": 200,
            "wind_speed": 3,
            "wind_gust": null,
            "temperature": 3,
            "dewpoint": 3,
            "qnh": 1002
        },
        {
            "id": 485654933,
            "observed": "2024-03-25 18:20:00",
            "raw": "ESMX 251820Z 00000KT 9999 BKN015 BKN022 OVC035 03/03 Q1002",
            "code": "MVFR",
            "weather": "overcast",
            "ceiling": 1500,
            "wind_dir": 0,
            "wind_speed": 0,
            "wind_gust": null,
            "temperature": 3,
            "dewpoint": 3,
            "qnh": 1002
        },
        {
            "id": 485648949,
            "observed": "2024-03-25 17:50:00",
            "raw": "ESMX 251750Z 20001KT 9999 FEW013 BKN019 BKN024 03/03 Q1002 REDZ",
            "code": "MVFR",
            "weather": "broken",
            "ceiling": 1900,
            "wind_dir": 200,
            "wind_speed": 1,
            "wind_gust": null,
            "temperature": 3,
            "dewpoint": 3,
            "qnh": 1002
        },
        {
            "id": 485645554,
            "observed": "2024-03-25 17:20:00",
            "raw": "ESMX 251720Z 00000KT 9999 -RA FEW006 SCT008 BKN020 03/03 Q1002",
            "code": "MVFR",
            "weather": "rain",
            "ceiling": 2000,
            "wind_dir": 0,
            "wind_speed": 0,
            "wind_gust": null,
            "temperature": 3,
            "dewpoint": 3,
            "qnh": 1002
        },
        {
            "id": 485639499,
            "observed": "2024-03-25 16:50:00",
            "raw": "ESMX 251650Z 20003KT 9999 FEW016 BKN026 BKN045 03/03 Q1001",
            "code": "MVFR",
            "weather": "broken",
            "ceiling": 2600,
            "wind_dir": 200,
            "wind_speed": 3,
            "wind_gust": null,
            "temperature": 3,
            "dewpoint": 3,
            "qnh": 1001
        },
        {
            "id": 485636140,
            "observed": "2024-03-25 16:20:00",
            "raw": "ESMX 251620Z 00000KT 9999 -RA SCT011 BKN016 03/03 Q1001",
            "code": "MVFR",
            "weather": "rain",
            "ceiling": 1600,
            "wind_dir": 0,
            "wind_speed": 0,
            "wind_gust": null,
            "temperature": 3,
            "dewpoint": 3,
            "qnh": 1001
        },
        {
            "id": 485630051,
            "observed": "2024-03-25 15:50:00",
            "raw": "ESMX 251550Z 20004KT 9999 RA BKN009 BKN017 03/03 Q1001",
            "code": "IFR",
            "weather": "rain",
            "ceiling": 900,
            "wind_dir": 200,
            "wind_speed": 4,
            "wind_gust": null,
            "temperature": 3,
            "dewpoint": 3,
            "qnh": 1001
        },
        {
            "id": 485626705,
            "observed": "2024-03-25 15:20:00",
            "raw": "ESMX 251520Z 00000KT 9999 BKN022 BKN038 05/04 Q1001",
            "code": "MVFR",
            "weather": "broken",
            "ceiling": 2200,
            "wind_dir": 0,
            "wind_speed": 0,
            "wind_gust": null,
            "temperature": 5,
            "dewpoint": 4,
            "qnh": 1001
        },
        {
            "id": 485620656,
            "observed": "2024-03-25 14:50:00",
            "raw": "ESMX 251450Z 21001KT 9999 FEW010 BKN032 05/04 Q1001",
            "code": "VFR",
            "weather": "broken",
            "ceiling": 3200,
            "wind_dir": 210,
            "wind_speed": 1,
            "wind_gust": null,
            "temperature": 5,
            "dewpoint": 4,
            "qnh": 1001
        },
        {
            "id": 485617248,
            "observed": "2024-03-25 14:20:00",
            "raw": "ESMX 251420Z VRB02KT 9999 -DZ FEW016 BKN022 BKN036 05/03 Q1001",
            "code": "MVFR",
            "weather": "drizzle",
            "ceiling": 2200,
            "wind_dir": -1,
            "wind_speed": 2,
            "wind_gust": null,
            "temperature": 5,
            "dewpoint": 3,
            "qnh": 1001
        },
        {
            "id": 485611163,
            "observed": "2024-03-25 13:50:00",
            "raw": "ESMX 251350Z 33004KT 9999 -RA BKN022 BKN031 05/04 Q1001",
            "code": "MVFR",
            "weather": "rain",
            "ceiling": 2200,
            "wind_dir": 330,
            "wind_speed": 4,
            "wind_gust": null,
            "temperature": 5,
            "dewpoint": 4,
            "qnh": 1001
        },
        {
            "id": 485607690,
            "observed": "2024-03-25 13:20:00",
            "raw": "ESMX 251320Z 31005KT 200V340 9999 DZ SCT022 BKN027 05/02 Q1001",
            "code": "MVFR",
            "weather": "drizzle",
            "ceiling": 2700,
            "wind_dir": 310,
            "wind_speed": 5,
            "wind_gust": null,
            "temperature": 5,
            "dewpoint": 2,
            "qnh": 1001
        },
        {
            "id": 485601553,
            "observed": "2024-03-25 12:50:00",
            "raw": "ESMX 251250Z 20003KT 9999 BKN023 BKN032 06/03 Q1001",
            "code": "MVFR",
            "weather": "broken",
            "ceiling": 2300,
            "wind_dir": 200,
            "wind_speed": 3,
            "wind_gust": null,
            "temperature": 6,
            "dewpoint": 3,
            "qnh": 1001
        },
        {
            "id": 485598081,
            "observed": "2024-03-25 12:20:00",
            "raw": "ESMX 251220Z 00000KT 9999 BKN024 06/03 Q1001",
            "code": "MVFR",
            "weather": "broken",
            "ceiling": 2400,
            "wind_dir": 0,
            "wind_speed": 0,
            "wind_gust": null,
            "temperature": 6,
            "dewpoint": 3,
            "qnh": 1001
        },
        {
            "id": 485592029,
            "observed": "2024-03-25 11:50:00",
            "raw": "ESMX 251150Z 00000KT 9999 SCT021 BKN035 05/03 Q1001",
            "code": "VFR",
            "weather": "broken",
            "ceiling": 3500,
            "wind_dir": 0,
            "wind_speed": 0,
            "wind_gust": null,
            "temperature": 5,
            "dewpoint": 3,
            "qnh": 1001
        },
        {
            "id": 485588684,
            "observed": "2024-03-25 11:20:00",
            "raw": "ESMX 251120Z 00000KT 9999 DZ FEW013 BKN028 05/04 Q1001",
            "code": "MVFR",
            "weather": "drizzle",
            "ceiling": 2800,
            "wind_dir": 0,
            "wind_speed": 0,
            "wind_gust": null,
            "temperature": 5,
            "dewpoint": 4,
            "qnh": 1001
        },
        {
            "id": 485582527,
            "observed": "2024-03-25 10:50:00",
            "raw": "ESMX 251050Z 02004KT 330V050 9999 SCT008 BKN011 05/03 Q1001",
            "code": "MVFR",
            "weather": "broken",
            "ceiling": 1100,
            "wind_dir": 20,
            "wind_speed": 4,
            "wind_gust": null,
            "temperature": 5,
            "dewpoint": 3,
            "qnh": 1001
        },
        {
            "id": 485579122,
            "observed": "2024-03-25 10:20:00",
            "raw": "ESMX 251020Z 01004KT 320V040 9999 SCT008 BKN047 04/03 Q1001",
            "code": "VFR",
            "weather": "broken",
            "ceiling": 4700,
            "wind_dir": 10,
            "wind_speed": 4,
            "wind_gust": null,
            "temperature": 4,
            "dewpoint": 3,
            "qnh": 1001
        },
        {
            "id": 485573061,
            "observed": "2024-03-25 09:50:00",
            "raw": "ESMX 250950Z 36003KT 310V030 9999 FEW006 BKN037 04/03 Q1001",
            "code": "VFR",
            "weather": "broken",
            "ceiling": 3700,
            "wind_dir": 360,
            "wind_speed": 3,
            "wind_gust": null,
            "temperature": 4,
            "dewpoint": 3,
            "qnh": 1001
        },
        {
            "id": 485569561,
            "observed": "2024-03-25 09:20:00",
            "raw": "ESMX 250920Z VRB03KT 9999 BKN006 04/03 Q1000",
            "code": "IFR",
            "weather": "broken",
            "ceiling": 600,
            "wind_dir": -1,
            "wind_speed": 3,
            "wind_gust": null,
            "temperature": 4,
            "dewpoint": 3,
            "qnh": 1000
        },
        {
            "id": 485563542,
            "observed": "2024-03-25 08:50:00",
            "raw": "ESMX 250850Z AUTO 00000KT 9999 OVC004/// 03/03 Q1000",
            "code": "LIFR",
            "weather": "overcast",
            "ceiling": 400,
            "wind_dir": 0,
            "wind_speed": 0,
            "wind_gust": null,
            "temperature": 3,
            "dewpoint": 3,
            "qnh": 1000
        },
        {
            "id": 485560034,
            "observed": "2024-03-25 08:20:00",
            "raw": "ESMX 250820Z 00000KT 9999 BKN004 03/03 Q1000",
            "code": "LIFR",
            "weather": "broken",
            "ceiling": 400,
            "wind_dir": 0,
            "wind_speed": 0,
            "wind_gust": null,
            "temperature": 3,
            "dewpoint": 3,
            "qnh": 1000
        },
        {
            "id": 485554050,
            "observed": "2024-03-25 07:50:00",
            "raw": "ESMX 250750Z VRB01KT 9999 BKN004 03/03 Q1000",
            "code": "LIFR",
            "weather": "broken",
            "ceiling": 400,
            "wind_dir": -1,
            "wind_speed": 1,
            "wind_gust": null,
            "temperature": 3,
            "dewpoint": 3,
            "qnh": 1000
        },
        {
            "id": 485550678,
            "observed": "2024-03-25 07:20:00",
            "raw": "ESMX 250720Z 00000KT 9999 BKN003 03/03 Q0999",
            "code": "LIFR",
            "weather": "broken",
            "ceiling": 300,
            "wind_dir": 0,
            "wind_speed": 0,
            "wind_gust": null,
            "temperature": 3,
            "dewpoint": 3,
            "qnh": 999
        },
        {
            "id": 485544698,
            "observed": "2024-03-25 06:50:00",
            "raw": "ESMX 250650Z VRB03KT 9999 BKN003 OVC005 03/03 Q0999",
            "code": "LIFR",
            "weather": "overcast",
            "ceiling": 300,
            "wind_dir": -1,
            "wind_speed": 3,
            "wind_gust": null,
            "temperature": 3,
            "dewpoint": 3,
            "qnh": 999
        },
        {
            "id": 485541301,
            "observed": "2024-03-25 06:20:00",
            "raw": "ESMX 250620Z VRB03KT 9999 -RA BKN003 02/02 Q0999",
            "code": "LIFR",
            "weather": "rain",
            "ceiling": 300,
            "wind_dir": -1,
            "wind_speed": 3,
            "wind_gust": null,
            "temperature": 2,
            "dewpoint": 2,
            "qnh": 999
        },
        {
            "id": 485535292,
            "observed": "2024-03-25 05:50:00",
            "raw": "ESMX 250550Z 04003KT 9999 -DZ OVC003 02/02 Q0998",
            "code": "LIFR",
            "weather": "drizzle",
            "ceiling": 300,
            "wind_dir": 40,
            "wind_speed": 3,
            "wind_gust": null,
            "temperature": 2,
            "dewpoint": 2,
            "qnh": 998
        }
    ]
}